{"type": "FeatureCollection", "features": [ {"type": "Feature", "properties": {"norad_id": 66995, "name": "2025-292C", "group": "last-30-days", "lat": -37.89538627856281, "lon": 67.40110542245854, "alt_km": 553.8470326104843, "timestamp": "2025-12-14T20:40:30.518316+00:00", "meta": {"OBJECT_NAME": "2025-292C", "OBJECT_ID": "2025-292C", "EPOCH": "2025-12-14T12:51:51.046272", "MEAN_MOTION": 15.04563207, "ECCENTRICITY": 0.0014034, "INCLINATION": 97.6537, "RA_OF_ASC_NODE": 61.0707, "ARG_OF_PERICENTER": 266.9819, "MEAN_ANOMALY": 92.9801, "EPHEMERIS_TYPE": 0, "CLASSIFICATION_TYPE": "U", "NORAD_CAT_ID": 66995, "ELEMENT_SET_NO": 999, "REV_AT_EPOCH": 66, "BSTAR": 6.6895e-05, "MEAN_MOTION_DOT": 8.77e-06, "MEAN_MOTION_DDOT": 0}, "tle": {"line1": "1 66995U 25292C   25348.53600748  .00000877  00000+0  66895-4 0  9999", "line2": "2 66995  97.6537  61.0707 0014034 266.9819  92.9801 15.04563207   662"}}, "geometry": {"type": "Point", "coordinates": [67.40110542245854, -37.89538627856281]}}, {"type": "Feature", "properties": {"norad_id": 66996, "name": "2025-292D", "group": "last-30-days", "lat": -37.008888283488545, "lon": 67.21001278989685, "alt_km": 553.7137472821314, "timestamp": "2025-12-14T20:40:30.518330+00:00", "meta": {"OBJECT_NAME": "2025-292D", "OBJECT_ID": "2025-292D", "EPOCH": "2025-12-14T12:51:37.507392", "MEAN_MOTION": 15.04609236, "ECCENTRICITY": 0.0013218, "INCLINATION": 97.6531, "RA_OF_ASC_NODE": 61.0701, "ARG_OF_PERICENTER": 269.9152, "MEAN_ANOMALY": 90.056, "EPHEMERIS_TYPE": 0, "CLASSIFICATION_TYPE": "U", "NORAD_CAT_ID": 66996, "ELEMENT_SET_NO": 999, "REV_AT_EPOCH": 66, "BSTAR": 6.6608e-05, "MEAN_MOTION_DOT": 8.74e-06, "MEAN_MOTION_DDOT": 0}, "tle": {"line1": "1 66996U 25292D   25348.53585078  .00000874  00000+0  66608-4 0  9997", "line2": "2 66996  97.6531  61.0701 0013218 269.9152  90.0560 15.04609236   661"}}, "geometry": {"type": "Point", "coordinates": [67.21001278989685, -37.008888283488545]}}, {"type": "Feature", "properties": {"norad_id": 66997, "name": "2025-292E", "group": "last-30-days", "lat": -35.70775427314544, "lon": 66.9419090611788, "alt_km": 553.3433608931273, "timestamp": "2025-12-14T20:40:30.518340+00:00", "meta": {"OBJECT_NAME": "2025-292E", "OBJECT_ID": "2025-292E", "EPOCH": "2025-12-14T14:27:03.560256", "MEAN_MOTION": 15.04688384, "ECCENTRICITY": 0.001358, "INCLINATION": 97.6547, "RA_OF_ASC_NODE": 61.1375, "ARG_OF_PERICENTER": 270.3465, "MEAN_ANOMALY": 89.6205, "EPHEMERIS_TYPE": 0, "CLASSIFICATION_TYPE": "U", "NORAD_CAT_ID": 66997, "ELEMENT_SET_NO": 999, "REV_AT_EPOCH": 66, "BSTAR": 6.5331e-05, "MEAN_MOTION_DOT": 8.58e-06, "MEAN_MOTION_DDOT": 0}, "tle": {"line1": "1 66997U 25292E   25348.60212454  .00000858  00000+0  65331-4 0  9995", "line2": "2 66997  97.6547  61.1375 0013580 270.3465  89.6205 15.04688384   663"}}, "geometry": {"type": "Point", "coordinates": [66.9419090611788, -35.70775427314544]}}, {"type": "Feature", "properties": {"norad_id": 66998, "name": "2025-292F", "group": "last-30-days", "lat": -33.189612002213764, "lon": 66.44486391065638, "alt_km": 552.5879653277507, "timestamp": "2025-12-14T20:40:30.518350+00:00", "meta": {"OBJECT_NAME": "2025-292F", "OBJECT_ID": "2025-292F", "EPOCH": "2025-12-14T14:26:25.158048", "MEAN_MOTION": 15.04845918, "ECCENTRICITY": 0.0014675, "INCLINATION": 97.657, "RA_OF_ASC_NODE": 61.1387, "ARG_OF_PERICENTER": 270.779, "MEAN_ANOMALY": 89.1754, "EPHEMERIS_TYPE": 0, "CLASSIFICATION_TYPE": "U", "NORAD_CAT_ID": 66998, "ELEMENT_SET_NO": 999, "REV_AT_EPOCH": 67, "BSTAR": 6.4716e-05, "MEAN_MOTION_DOT": 8.54e-06, "MEAN_MOTION_DDOT": 0}, "tle": {"line1": "1 66998U 25292F   25348.60168007  .00000854  00000+0  64716-4 0  9992", "line2": "2 66998  97.6570  61.1387 0014675 270.7790  89.1754 15.04845918   677"}}, "geometry": {"type": "Point", "coordinates": [66.44486391065638, -33.189612002213764]}}, {"type": "Feature", "properties": {"norad_id": 66999, "name": "2025-292G", "group": "last-30-days", "lat": -32.144300483256494, "lon": 66.24702608435882, "alt_km": 552.3656879503878, "timestamp": "2025-12-14T20:40:30.518359+00:00", "meta": {"OBJECT_NAME": "2025-292G", "OBJECT_ID": "2025-292G", "EPOCH": "2025-12-14T16:01:54.050880", "MEAN_MOTION": 15.04914178, "ECCENTRICITY": 0.0014012, "INCLINATION": 97.658, "RA_OF_ASC_NODE": 61.2051, "ARG_OF_PERICENTER": 273.0324, "MEAN_ANOMALY": 86.9298, "EPHEMERIS_TYPE": 0, "CLASSIFICATION_TYPE": "U", "NORAD_CAT_ID": 66999, "ELEMENT_SET_NO": 999, "REV_AT_EPOCH": 68, "BSTAR": 0.00037236, "MEAN_MOTION_DOT": 5.221e-05, "MEAN_MOTION_DDOT": 0}, "tle": {"line1": "1 66999U 25292G   25348.66798670  .00005221  00000+0  37236-3 0  9993", "line2": "2 66999  97.6580  61.2051 0014012 273.0324  86.9298 15.04914178   686"}}, "geometry": {"type": "Point", "coordinates": [66.24702608435882, -32.144300483256494]}}, {"type": "Feature", "properties": {"norad_id": 67000, "name": "2025-292H", "group": "last-30-days", "lat": -32.16517594373478, "lon": 66.25376798128858, "alt_km": 552.4961166788189, "timestamp": "2025-12-14T20:40:30.518369+00:00", "meta": {"OBJECT_NAME": "2025-292H", "OBJECT_ID": "2025-292H", "EPOCH": "2025-12-14T14:26:09.579264", "MEAN_MOTION": 15.04911701, "ECCENTRICITY": 0.0013928, "INCLINATION": 97.6602, "RA_OF_ASC_NODE": 61.1405, "ARG_OF_PERICENTER": 272.625, "MEAN_ANOMALY": 87.3382, "EPHEMERIS_TYPE": 0, "CLASSIFICATION_TYPE": "U", "NORAD_CAT_ID": 67000, "ELEMENT_SET_NO": 999, "REV_AT_EPOCH": 54, "BSTAR": 0.00012717, "MEAN_MOTION_DOT": 1.741e-05, "MEAN_MOTION_DDOT": 0}, "tle": {"line1": "1 67000U 25292H   25348.60149976  .00001741  00000+0  12717-3 0  9990", "line2": "2 67000  97.6602  61.1405 0013928 272.6250  87.3382 15.04911701   548"}}, "geometry": {"type": "Point", "coordinates": [66.25376798128858, -32.16517594373478]}}, {"type": "Feature", "properties": {"norad_id": 67001, "name": "2025-292J", "group": "last-30-days", "lat": -41.83711374835506, "lon": 68.31024057720607, "alt_km": 554.743215283388, "timestamp": "2025-12-14T20:40:30.518379+00:00", "meta": {"OBJECT_NAME": "2025-292J", "OBJECT_ID": "2025-292J", "EPOCH": "2025-12-14T08:05:29.621760", "MEAN_MOTION": 15.04325661, "ECCENTRICITY": 0.00142825, "INCLINATION": 97.6571, "RA_OF_ASC_NODE": 60.8731, "ARG_OF_PERICENTER": 262.9248, "MEAN_ANOMALY": 97.0354, "EPHEMERIS_TYPE": 0, "CLASSIFICATION_TYPE": "U", "NORAD_CAT_ID": 67001, "ELEMENT_SET_NO": 999, "REV_AT_EPOCH": 63, "BSTAR": 0.00048752053, "MEAN_MOTION_DOT": 6.749e-05, "MEAN_MOTION_DDOT": 0}, "tle": {"line1": "1 67001U 25292J   25348.33714840  .00006749  00000+0  48752-3 0  9990", "line2": "2 67001  97.6571  60.8731 0014282 262.9248  97.0354 15.04325661   636"}}, "geometry": {"type": "Point", "coordinates": [68.31024057720607, -41.83711374835506]}}, {"type": "Feature", "properties": {"norad_id": 67002, "name": "ZK-1A R/B", "group": "last-30-days", "lat": 79.26953782652485, "lon": 16.062956504956695, "alt_km": 376.0087764909631, "timestamp": "2025-12-14T20:40:30.518391+00:00", "meta": {"OBJECT_NAME": "ZK-1A R/B", "OBJECT_ID": "2025-292K", "EPOCH": "2025-12-14T04:53:25.797984", "MEAN_MOTION": 15.5511793, "ECCENTRICITY": 0.02184536, "INCLINATION": 97.7244, "RA_OF_ASC_NODE": 61.1002, "ARG_OF_PERICENTER": 0.6291, "MEAN_ANOMALY": 359.5195, "EPHEMERIS_TYPE": 0, "CLASSIFICATION_TYPE": "U", "NORAD_CAT_ID": 67002, "ELEMENT_SET_NO": 999, "REV_AT_EPOCH": 62, "BSTAR": 0.00088664424, "MEAN_MOTION_DOT": 0.00180824, "MEAN_MOTION_DDOT": 1.0602988e-05}, "tle": {"line1": "1 67002U 25292K   25348.20377081  .00180824  10603-4  88664-3 0  9997", "line2": "2 67002  97.7244  61.1002 0218453   0.6291 359.5195 15.55117930   623"}}, "geometry": {"type": "Point", "coordinates": [16.062956504956695, 79.26953782652485]}}, {"type": "Feature", "properties": {"norad_id": 67059, "name": "HULIANWANG DIGUI 16A", "group": "last-30-days", "lat": -47.65090128043344, "lon": -63.79549388460212, "alt_km": 801.2918299362054, "timestamp": "2025-12-14T20:40:30.518401+00:00", "meta": {"OBJECT_NAME": "HULIANWANG DIGUI 16A", "OBJECT_ID": "2025-295A", "EPOCH": "2025-12-12T05:06:27.347328", "MEAN_MOTION": 14.25879966, "ECCENTRICITY": 0.00136284, "INCLINATION": 50.0035, "RA_OF_ASC_NODE": 14.4753, "ARG_OF_PERICENTER": 247.7813, "MEAN_ANOMALY": 112.1656, "EPHEMERIS_TYPE": 0, "CLASSIFICATION_TYPE": "U", "NORAD_CAT_ID": 67059, "ELEMENT_SET_NO": 999, "REV_AT_EPOCH": 4, "BSTAR": 3.434713e-06, "MEAN_MOTION_DOT": -1.52e-06, "MEAN_MOTION_DDOT": 0}, "tle": {"line1": "1 67059U 25295A   25346.21281652 -.00000152  00000+0  34347-5 0  9991", "line2": "2 67059  50.0035  14.4753 0013628 247.7813 112.1656 14.25879966    41"}}, "geometry": {"type": "Point", "coordinates": [-63.79549388460212, -47.65090128043344]}}, {"type": "Feature", "properties": {"norad_id": 67060, "name": "HULIANWANG DIGUI 16B", "group": "last-30-days", "lat": -47.18688146733701, "lon": -61.711666569232094, "alt_km": 801.3187654397361, "timestamp": "2025-12-14T20:40:30.518414+00:00", "meta": {"OBJECT_NAME": "HULIANWANG DIGUI 16B", "OBJECT_ID": "2025-295B", "EPOCH": "2025-12-12T05:06:25.468992", "MEAN_MOTION": 14.26022254, "ECCENTRICITY": 0.0013423, "INCLINATION": 50.0012, "RA_OF_ASC_NODE": 14.4776, "ARG_OF_PERICENTER": 244.6732, "MEAN_ANOMALY": 115.2792, "EPHEMERIS_TYPE": 0, "CLASSIFICATION_TYPE": "U", "NORAD_CAT_ID": 67060, "ELEMENT_SET_NO": 999, "REV_AT_EPOCH": 4, "BSTAR": 4.398892e-06, "MEAN_MOTION_DOT": -1.5e-06, "MEAN_MOTION_DDOT": 0}, "tle": {"line1": "1 67060U 25295B   25346.21279478 -.00000150  00000+0  43989-5 0  9996", "line2": "2 67060  50.0012  14.4776 0013423 244.6732 115.2792 14.26022254    48"}}, "geometry": {"type": "Point", "coordinates": [-61.711666569232094, -47.18688146733701]}}]}